{
  "norad_id": 66309,
  "name": "TOMORROW-S9",
  "history": [
    {
      "epoch": "2026-03-28T08:49:17.157216",
      "apogee_km": 510.42224006457946,
      "perigee_km": 504.62038437070623,
      "latitude_deg": 21.01969952528307,
      "longitude_deg": 126.18573024007492,
      "semi_major_axis_km": 6885.658312217643,
      "eccentricity": 0.0004213,
      "inclination_deg": 45.4043,
      "raan_deg": 194.8247,
      "arg_perigee_deg": 300.5915,
      "mean_anomaly_deg": 59.4556,
      "mean_motion_rev_day": 15.19443516
    }
  ]
}